ONEWEB-0492             
1 54114U 22138B   25284.25333177 -.00000022  00000+0 -87630-4 0  9996
2 54114  87.9273 354.4907 0001985 106.2156 253.9195 13.19724544144002
ONEWEB-0495             
1 54115U 22138C   25284.23120602  .00000152  00000+0  34800-3 0  9994
2 54115  87.9264 354.5017 0001671 122.8373 237.2921 13.19726652143983
ONEWEB-0497             
1 54116U 22138D   25284.24384212  .00000133  00000+0  30053-3 0  9990
2 54116  87.9280 354.4796 0001870 102.9479 257.1863 13.19726931143977
ONEWEB-0499             
1 54117U 22138E   25284.22724263  .00000101  00000+0  21940-3 0  9993
2 54117  87.9272 354.4983 0001672 101.0424 259.0897 13.19722592143985
ONEWEB-0500             
1 54118U 22138F   25284.22963115  .00000136  00000+0  30842-3 0  9994
2 54118  87.9270 354.4854 0001951 100.2327 259.9025 13.19726844143991
ONEWEB-0501             
1 54119U 22138G   25284.18382637  .00001014  00000+0  24994-2 0  9990
2 54119  87.9280 354.4878 0001705 112.3605 247.7709 13.19729653143961
ONEWEB-0502             
1 54120U 22138H   25284.24541891  .00000032  00000+0  46828-4 0  9999
2 54120  87.9278 354.4580 0001661 104.5047 255.6270 13.19723838143997
ONEWEB-0503             
1 54121U 22138J   25284.23435402 -.00000070  00000+0 -20729-3 0  9994
2 54121  87.9276 354.4643 0001733  92.9173 267.2158 13.19726627143988
